{"type":"FeatureCollection","features":[
{"type":"Feature","properties":{"reach_id":1,"strahler_order":1,"length_m":101.4,"contributing_area_ha":1.207},"geometry":{"type":"LineString","coordinates":[[0.006803,0.0119938],[0.006821,0.0119757],[0.006821,0.0119667],[0.006812,0.0119577],[0.006812,0.0119396],[0.006821,0.0119306],[0.006821,0.0119215],[0.0068299,0.0119125],[0.0068299,0.0119035],[0.0068479,0.0118854],[0.0068479,0.0118673],[0.0068569,0.0118583],[0.0068569,0.0118493],[0.0068928,0.0118131],[0.0068838,0.0118041],[0.0068928,0.011795],[0.0068928,0.0117679],[0.0069017,0.0117589],[0.0069017,0.0117318],[0.0069107,0.0117228],[0.0069107,0.0116776],[0.0069017,0.0116686],[0.0068928,0.0116686],[0.0068928,0.0116595],[0.0068838,0.0116505],[0.0068928,0.0116415],[0.0068838,0.0116324],[0.0068928,0.0116234],[0.0068838,0.0116143],[0.0068838,0.0116053],[0.0068928,0.0115963],[0.0068838,0.0115872],[0.0068838,0.0115782],[0.0068928,0.0115692],[0.0068928,0.0115601],[0.0069017,0.0115511],[0.0069017,0.0115421],[0.0069107,0.011533],[0.0068928,0.011515],[0.0069017,0.0115059],[0.0069017,0.0114969],[0.0069197,0.0114788],[0.0069197,0.0114698],[0.0069287,0.0114608],[0.0069287,0.0114065],[0.0069556,0.0113794],[0.0069556,0.0113523],[0.0069287,0.0113252],[0.0069287,0.0113072],[0.0069197,0.0112981],[0.0069287,0.0112891],[0.0069287,0.011253],[0.0069376,0.0112439]]}},
{"type":"Feature","properties":{"reach_id":2,"strahler_order":1,"length_m":86.9,"contributing_area_ha":0.963},"geometry":{"type":"LineString","coordinates":[[0.0073953,0.0118131],[0.0073953,0.0118041],[0.0074043,0.0117951],[0.0074043,0.0117589],[0.0074133,0.0117499],[0.0074133,0.0117047],[0.0074223,0.0116957],[0.0074223,0.0116415],[0.0074312,0.0116324],[0.0074312,0.0115511],[0.0074402,0.0115421],[0.0074402,0.0112078],[0.0074312,0.0111987],[0.0074312,0.0111084],[0.0074223,0.0110994],[0.0074223,0.0110542]]}},
{"type":"Feature","properties":{"reach_id":3,"strahler_order":1,"length_m":151.6,"contributing_area_ha":1.512},"geometry":{"type":"LineString","coordinates":[[0.0055735,0.0117137],[0.0055735,0.0116866],[0.0055825,0.0116776],[0.0055825,0.0116414],[0.0055646,0.0116234],[0.0055556,0.0116234],[0.0055466,0.0116143],[0.0055466,0.0116053],[0.0054928,0.0115511],[0.0054928,0.0115421],[0.0054748,0.011524],[0.0054838,0.011515],[0.0054838,0.0114878],[0.0054748,0.0114788],[0.0054838,0.0114698],[0.0054838,0.0114607],[0.0054928,0.0114517],[0.0054928,0.0114427],[0.0055287,0.0114065],[0.0055287,0.0113975],[0.0055376,0.0113885],[0.0055376,0.0113704],[0.0055466,0.0113614],[0.0055466,0.0113343],[0.0055376,0.0113252],[0.0055376,0.0113071],[0.0055466,0.0112981],[0.0055556,0.0112981],[0.0055646,0.0112891],[0.0055646,0.01128],[0.0055556,0.011271],[0.0055556,0.011262],[0.0055646,0.0112529],[0.0055646,0.0111987],[0.0055556,0.0111897],[0.0055556,0.0111807],[0.0055466,0.0111716],[0.0055556,0.0111626],[0.0055556,0.0111536],[0.0055646,0.0111445],[0.0055646,0.0111355],[0.0055556,0.0111265],[0.0055556,0.0110722],[0.0055466,0.0110632],[0.0055466,0.0110542],[0.0055556,0.0110451],[0.0055466,0.0110361],[0.0055466,0.011],[0.0055287,0.0109819],[0.0055376,0.0109729],[0.0055197,0.0109548],[0.0055197,0.0109458],[0.0055287,0.0109367],[0.0055287,0.0109277],[0.0055376,0.0109186],[0.0055376,0.0109096],[0.0055287,0.0109006],[0.0055466,0.0108825],[0.0055376,0.0108735],[0.0055376,0.0108644],[0.0055287,0.0108554],[0.0055287,0.0108193],[0.0055376,0.0108102],[0.0055376,0.0107922],[0.0055556,0.0107741],[0.0055466,0.0107651],[0.0055466,0.010756],[0.0055646,0.010738],[0.0055646,0.0107108],[0.0055735,0.0107018],[0.0055735,0.0106747],[0.0055825,0.0106657],[0.0055825,0.0106024],[0.0055915,0.0106024],[0.0056005,0.0106115],[0.0056094,0.0106024]]}},
{"type":"Feature","properties":{"reach_id":4,"strahler_order":1,"length_m":29.3,"contributing_area_ha":0.52},"geometry":{"type":"LineString","coordinates":[[0.0079069,0.0112981],[0.00788,0.011271],[0.00788,0.0111897],[0.007862,0.0111716],[0.007862,0.0111445],[0.007853,0.0111355],[0.007853,0.0111265],[0.0078351,0.0111084],[0.0078351,0.0110632]]}},
{"type":"Feature","properties":{"reach_id":5,"strahler_order":2,"length_m":63.5,"contributing_area_ha":8.21},"geometry":{"type":"LineString","coordinates":[[0.0069376,0.0112439],[0.0069735,0.0112439],[0.0069825,0.0112349],[0.0070005,0.0112349],[0.0070094,0.0112258],[0.0070274,0.0112259],[0.0070364,0.0112168],[0.0070453,0.0112168],[0.0070543,0.0112078],[0.0070633,0.0112078],[0.0070723,0.0111987],[0.0070812,0.0111987],[0.0070902,0.0111897],[0.0070992,0.0111897],[0.0071082,0.0111807],[0.0071171,0.0111807],[0.0071261,0.0111716],[0.0071351,0.0111716],[0.0071441,0.0111626],[0.007153,0.0111626],[0.007162,0.0111536],[0.007171,0.0111536],[0.0071889,0.0111355],[0.0072069,0.0111355],[0.0072248,0.0111174],[0.0072338,0.0111174],[0.0072428,0.0111084],[0.0072518,0.0111084],[0.0072607,0.0110994],[0.0072787,0.0110994],[0.0072877,0.0110903],[0.0072966,0.0110903],[0.0073056,0.0110813],[0.0073146,0.0110813],[0.0073235,0.0110723],[0.0073415,0.0110723],[0.0073505,0.0110632],[0.0073684,0.0110632],[0.0073774,0.0110542],[0.0073953,0.0110542],[0.0074043,0.0110452],[0.0074133,0.0110542],[0.0074223,0.0110542]]}},
{"type":"Feature","properties":{"reach_id":6,"strahler_order":2,"length_m":141.8,"contributing_area_ha":13.654},"geometry":{"type":"LineString","coordinates":[[0.0078351,0.0110632],[0.0078441,0.0110632],[0.007853,0.0110542],[0.007871,0.0110542],[0.00788,0.0110452],[0.0078889,0.0110452],[0.0078979,0.0110361],[0.0079159,0.0110361],[0.0079338,0.0110181],[0.0079518,0.0110181],[0.0079697,0.011],[0.0079787,0.011],[0.0079966,0.0109819],[0.0080056,0.0109819],[0.0081312,0.0108554],[0.0081312,0.0108464],[0.0081851,0.0107922],[0.0081851,0.0107832],[0.008212,0.010756],[0.008212,0.010747],[0.0082479,0.0107109],[0.0082479,0.0107018],[0.0082748,0.0106747],[0.0082748,0.0106657],[0.0083018,0.0106386],[0.0083018,0.0106296],[0.0083556,0.0105754],[0.0083556,0.0105663],[0.0084723,0.0104489],[0.0084813,0.0104489],[0.0084992,0.0104308],[0.0085082,0.0104308],[0.0085261,0.0104127],[0.0085351,0.0104127],[0.0085441,0.0104037],[0.008562,0.0104037],[0.008571,0.0103947],[0.0086069,0.0103947],[0.0086159,0.0103856],[0.0086787,0.0103856],[0.0086877,0.0103947],[0.0087056,0.0103947],[0.0087146,0.0104037],[0.0087415,0.0104037],[0.0087505,0.0104127],[0.0087595,0.0104127],[0.0087684,0.0104218],[0.0087774,0.0104218]]}},
{"type":"Feature","properties":{"reach_id":7,"strahler_order":2,"length_m":1.4,"contributing_area_ha":9.173},"geometry":{"type":"LineString","coordinates":[[0.0074223,0.0110542],[0.0074312,0.0110452]]}},
{"type":"Feature","properties":{"reach_id":8,"strahler_order":2,"length_m":48.3,"contributing_area_ha":11.649},"geometry":{"type":"LineString","coordinates":[[0.0074312,0.0110452],[0.0075659,0.0110452],[0.0075748,0.0110542],[0.0075838,0.0110542],[0.0075928,0.0110452],[0.0076018,0.0110542],[0.0076287,0.0110542],[0.0076377,0.0110632],[0.0076466,0.0110542],[0.0076556,0.0110542],[0.0076646,0.0110632],[0.0077543,0.0110632],[0.0077633,0.0110723],[0.0077723,0.0110632],[0.0078351,0.0110632]]}},
{"type":"Feature","properties":{"reach_id":9,"strahler_order":2,"length_m":193.8,"contributing_area_ha":6.196},"geometry":{"type":"LineString","coordinates":[[0.0056094,0.0106024],[0.0056184,0.0106115],[0.0056274,0.0106024],[0.0056364,0.0106024],[0.0056453,0.0106115],[0.0056543,0.0106115],[0.0056633,0.0106024],[0.0057082,0.0106024],[0.0057171,0.0105934],[0.005753,0.0105934],[0.005762,0.0105844],[0.0057889,0.0105844],[0.0057979,0.0105753],[0.0058159,0.0105753],[0.0058248,0.0105663],[0.0058428,0.0105663],[0.0058518,0.0105573],[0.0058697,0.0105573],[0.0058787,0.0105482],[0.0059146,0.0105482],[0.0059235,0.0105392],[0.0059415,0.0105392],[0.0059505,0.0105302],[0.0059953,0.0105302],[0.0060043,0.0105211],[0.0060312,0.0105211],[0.0060402,0.0105302],[0.0060492,0.0105211],[0.0060582,0.0105211],[0.0060671,0.0105302],[0.006112,0.0105302],[0.006121,0.0105392],[0.0061389,0.0105392],[0.0061479,0.0105482],[0.0061569,0.0105482],[0.0061748,0.0105663],[0.0061838,0.0105663],[0.0061928,0.0105753],[0.0062018,0.0105753],[0.0062197,0.0105934],[0.0062287,0.0105934],[0.0062466,0.0106115],[0.0062556,0.0106115],[0.0062646,0.0106205],[0.0062646,0.0106295],[0.0062825,0.0106476],[0.0062915,0.0106476],[0.0063184,0.0106747],[0.0063184,0.0106837],[0.0063812,0.010747],[0.0063812,0.010756],[0.0064171,0.0107922],[0.0064171,0.0108012],[0.006453,0.0108373],[0.006453,0.0108464],[0.006471,0.0108644],[0.006471,0.0108735],[0.0064979,0.0109006],[0.0064979,0.0109096],[0.0065159,0.0109277],[0.0065159,0.0109367],[0.0065428,0.0109638],[0.0065428,0.0109729],[0.0065787,0.011009],[0.0065787,0.011018],[0.0066146,0.0110542],[0.0066146,0.0110632],[0.0067312,0.0111807],[0.0067402,0.0111807],[0.0067582,0.0111987],[0.0067671,0.0111987],[0.0067851,0.0112168],[0.0067941,0.0112168],[0.006803,0.0112258],[0.006821,0.0112258],[0.00683,0.0112349],[0.0068569,0.0112349],[0.0068659,0.0112439],[0.0069376,0.0112439]]}},
{"type":"Feature","properties":{"reach_id":10,"strahler_order":2,"length_m":19.8,"contributing_area_ha":2.175},"geometry":{"type":"LineString","coordinates":[[0.0055825,0.0104398],[0.0055915,0.0104488],[0.0055915,0.0105392],[0.0056005,0.0105482],[0.0056005,0.0106024],[0.0056094,0.0106024]]}},
{"type":"Feature","properties":{"reach_id":11,"strahler_order":1,"length_m":2.8,"contributing_area_ha":0.829},"geometry":{"type":"LineString","coordinates":[[0.0055646,0.0104217],[0.0055825,0.0104398]]}},
{"type":"Feature","properties":{"reach_id":12,"strahler_order":2,"length_m":54.4,"contributing_area_ha":1.342},"geometry":{"type":"LineString","coordinates":[[0.0058069,0.0100603],[0.0057979,0.0100603],[0.005771,0.0100874],[0.005771,0.0100965],[0.005753,0.0101145],[0.0057441,0.0101145],[0.0057261,0.0101326],[0.0057261,0.010241],[0.0057082,0.0102591],[0.0057082,0.0102772],[0.0056902,0.0102952],[0.0056902,0.0103043],[0.0055915,0.0104037],[0.0055915,0.0104127],[0.0056005,0.0104217],[0.0055825,0.0104398]]}},
{"type":"Feature","properties":{"reach_id":13,"strahler_order":1,"length_m":3.0,"contributing_area_ha":0.488},"geometry":{"type":"LineString","coordinates":[[0.0058338,0.0100603],[0.0058069,0.0100603]]}},
{"type":"Feature","properties":{"reach_id":14,"strahler_order":1,"length_m":134.9,"contributing_area_ha":1.858},"geometry":{"type":"LineString","coordinates":[[0.007503,0.0100604],[0.0074941,0.0100694],[0.0074941,0.0100784],[0.0074851,0.0100875],[0.0074851,0.0101055],[0.0074582,0.0101326],[0.0074582,0.0101507],[0.0074492,0.0101597],[0.0074492,0.0101778],[0.0074402,0.0101868],[0.0074402,0.0102049],[0.0074312,0.0102139],[0.0074402,0.010223],[0.0074402,0.010232],[0.0074671,0.0102591],[0.0074671,0.0102953],[0.0074582,0.0103043],[0.0074671,0.0103133],[0.0074671,0.0103404],[0.0074582,0.0103495],[0.0074582,0.0103675],[0.0074492,0.0103766],[0.0074492,0.0103856],[0.0074402,0.0103946],[0.0074402,0.0104579],[0.0074223,0.0104579],[0.0074223,0.010476],[0.0074312,0.010476],[0.0074402,0.010485],[0.0074402,0.0105121],[0.0074312,0.0105211],[0.0074312,0.0105302],[0.0074133,0.0105482],[0.0074133,0.0105663],[0.0074043,0.0105753],[0.0073953,0.0105753],[0.0073684,0.0106024],[0.0073684,0.0106115],[0.0073595,0.0106205],[0.0073595,0.0106296],[0.0073236,0.0106657],[0.0073146,0.0106657],[0.0073056,0.0106747],[0.0073056,0.0106928],[0.0073146,0.0107018],[0.0073056,0.0107109],[0.0073056,0.010738],[0.0073146,0.010747],[0.0073146,0.0107651],[0.0073056,0.0107741],[0.0073236,0.0107922],[0.0073236,0.0108102],[0.0073505,0.0108374],[0.0073505,0.0108554],[0.0073864,0.0108916],[0.0073864,0.0109096],[0.0073953,0.0109096],[0.0074043,0.0109187],[0.0074043,0.0109277],[0.0074133,0.0109367],[0.0074133,0.0109729],[0.0074312,0.0109909],[0.0074312,0.0110452]]}},
{"type":"Feature","properties":{"reach_id":15,"strahler_order":1,"length_m":36.6,"contributing_area_ha":0.737},"geometry":{"type":"LineString","coordinates":[[0.0059325,0.0097893],[0.0059325,0.0097983],[0.0059146,0.0098164],[0.0059146,0.0098254],[0.0058877,0.0098525],[0.0058877,0.0098616],[0.0058697,0.0098796],[0.0058697,0.0098887],[0.0058518,0.0099067],[0.0058518,0.0099158],[0.0058428,0.0099248],[0.0058518,0.0099339],[0.0058518,0.0099519],[0.0058338,0.00997],[0.0058338,0.009979],[0.0058159,0.0099971],[0.0058159,0.0100513],[0.0058069,0.0100603]]}}
]}
