{"type":"FeatureCollection","features":[
{"type":"Feature","properties":{"zone_id":1,"name":"Unit A","total_acres":13.443,"woody_acres":1.934,"treatment_acres":1.644,"mean_slope_deg":4.45,"open_acres":11.508,"shrub_acres":0.984,"small_tree_acres":0.661,"tree_acres":0.29},"geometry":{"type":"Polygon","coordinates":[[[0.0051921,0.0090349],[0.0065563,0.0090349],[0.006269,0.0126488],[0.0051921,0.0126488],[0.0051921,0.0090349]]]}},
{"type":"Feature","properties":{"zone_id":2,"name":"Unit B","total_acres":13.838,"woody_acres":2.245,"treatment_acres":1.854,"mean_slope_deg":5.68,"open_acres":11.593,"shrub_acres":1.224,"small_tree_acres":0.63,"tree_acres":0.391},"geometry":{"type":"Polygon","coordinates":[[[0.0065563,0.0090349],[0.0077768,0.0090349],[0.0075614,0.0126488],[0.006269,0.0126488],[0.0065563,0.0090349]]]}},
{"type":"Feature","properties":{"zone_id":3,"name":"Unit C","total_acres":12.256,"woody_acres":1.774,"treatment_acres":1.48,"mean_slope_deg":5.33,"open_acres":10.482,"shrub_acres":0.911,"small_tree_acres":0.57,"tree_acres":0.294},"geometry":{"type":"Polygon","coordinates":[[[0.0077768,0.0090349],[0.0087819,0.0090349],[0.0087819,0.0126489],[0.0075614,0.0126488],[0.0077768,0.0090349]]]}}
]}
